     2.100          NAVIGATION                              RINEX VERSION / TYPE
fic2rin                                 06/07/2017 00:05:10 PGM / RUN BY / DATE
                                                            END OF HEADER
 6 17  6  6 22  0  0.0  .360938254744D-03  .500222085975D-11  .000000000000D+00
     .230000000000D+02  .172500000000D+02  .453661753976D-08  .183620359583D+01
     .957399606705D-06  .771040562540D-03  .802613794804D-05  .515368139839D+04
     .252000000000D+06 -.223517417908D-07 -.265050496527D+01 -.819563865662D-07
     .967484245659D+00  .223843750000D+03 -.109216058608D+01 -.792675875275D-08
     .370729728096D-09  .100000000000D+01  .195200000000D+04  .000000000000D+00
     .240000000000D+01  .000000000000D+00  .465661287308D-08  .230000000000D+02
     .244806000000D+06  .400000000000D+01
 7 17  6  6 22  0  0.0  .342813320458D-03 -.443378667114D-11  .000000000000D+00
     .630000000000D+02  .113187500000D+03  .441625538333D-08  .112012346934D+01
     .592693686485D-05  .106018830556D-01  .604055821896D-05  .515374215698D+04
     .252000000000D+06 -.124797224998D-06  .514779949440D+00  .763684511185D-07
     .962515611176D+00  .263562500000D+03 -.259822576198D+01 -.823320008869D-08
     .232509684962D-09  .100000000000D+01  .195200000000D+04  .000000000000D+00
     .240000000000D+01  .000000000000D+00 -.111758708954D-07  .630000000000D+02
     .244806000000D+06  .400000000000D+01
 8 17  6  6 22  0  0.0 -.622724182904D-04 -.125055521494D-11  .000000000000D+00
     .120000000000D+02 -.875000000000D+02  .425267714107D-08 -.187175367696D+01
    -.456348061562D-05  .256263173651D-02  .107269734144D-04  .515364886093D+04
     .252000000000D+06 -.819563865662D-07  .257855665725D+01 -.372529029846D-08
     .967058978300D+00  .178625000000D+03 -.658371329088D+00 -.783282626865D-08
     .321441960776D-11  .100000000000D+01  .195200000000D+04  .000000000000D+00
     .240000000000D+01  .000000000000D+00  .512227416039D-08  .120000000000D+02
     .244806000000D+06  .400000000000D+01
 9 17  6  6 22  0  0.0  .379236880690D-03  .807176547823D-11  .000000000000D+00
     .120000000000D+02  .226250000000D+02  .436625330055D-08 -.237402287972D+01
     .108778476715D-05  .703833531588D-03  .116508454084D-04  .515362541771D+04
     .252000000000D+06  .521540641785D-07 -.563257420698D+00 -.149011611938D-07
     .953651721776D+00  .151875000000D+03  .195466858944D+01 -.784746973576D-08
    -.451804533758D-09  .100000000000D+01  .195200000000D+04  .000000000000D+00
     .240000000000D+01  .000000000000D+00  .139698386192D-08  .120000000000D+02
     .244806000000D+06  .400000000000D+01
10 17  6  6 22  0  0.0 -.328482128680D-04  .112549969344D-10  .000000000000D+00
     .960000000000D+02 -.262812500000D+02  .485734518507D-08 -.445541283154D+00
    -.160932540894D-05  .254691683222D-02  .549480319023D-05  .515366522980D+04
     .252000000000D+06  .335276126862D-07 -.160333312437D+01  .484287738800D-07
     .959547988225D+00  .273375000000D+03 -.276703827942D+01 -.820069873488D-08
    -.412517182996D-09  .100000000000D+01  .195200000000D+04  .000000000000D+00
     .240000000000D+01  .000000000000D+00  .186264514923D-08  .960000000000D+02
     .244806000000D+06  .400000000000D+01
11 17  6  6 22  0  0.0 -.693473033607D-03 -.272848410532D-11  .000000000000D+00
     .106000000000D+03 -.850000000000D+01  .596381984561D-08  .113527958445D+01
    -.644475221634D-06  .167922434630D-01  .103339552879D-04  .515371518898D+04
     .252000000000D+06 -.227242708206D-06 -.304507563560D+01 -.320374965668D-06
     .901355239967D+00  .152250000000D+03  .164753397699D+01 -.875465038061D-08
     .462876423518D-09  .100000000000D+01  .195200000000D+04  .000000000000D+00
     .340000000000D+01  .000000000000D+00 -.121071934700D-07  .106000000000D+03
     .244806000000D+06  .400000000000D+01
12 17  6  6 22  0  0.0  .381976831704D-03 -.795807864051D-12  .000000000000D+00
     .380000000000D+02 -.474375000000D+02  .416624496940D-08  .516429143804D+00
    -.273995101452D-05  .667122553568D-02  .298582017422D-05  .515377386093D+04
     .252000000000D+06 -.391155481339D-07  .159963849696D+01  .540167093277D-07
     .988891121525D+00  .339406250000D+03  .889200864522D+00 -.816248285732D-08
    -.126433837905D-09  .100000000000D+01  .195200000000D+04  .000000000000D+00
     .240000000000D+01  .000000000000D+00 -.125728547573D-07  .380000000000D+02
     .244806000000D+06  .400000000000D+01
13 17  6  6 22  0  0.0 -.844770111144D-04 -.136424205266D-11  .000000000000D+00
     .830000000000D+02  .308125000000D+02  .390623413890D-08  .218922102024D+01
     .170432031155D-05  .367265811656D-02  .110939145088D-04  .515369246292D+04
     .252000000000D+06  .819563865662D-07 -.436941337823D+00  .121071934700D-06
     .969807026024D+00  .170062500000D+03  .183273980227D+01 -.755388607825D-08
    -.227152318949D-09  .100000000000D+01  .195200000000D+04  .000000000000D+00
     .240000000000D+01  .000000000000D+00 -.111758708954D-07  .830000000000D+02
     .244806000000D+06  .400000000000D+01
14 17  6  6 22  0  0.0 -.734431669116D-04 -.136424205266D-11  .000000000000D+00
     .920000000000D+02  .347187500000D+02  .400623830448D-08 -.272034756802D+01
     .181980431080D-05  .917721714359D-02  .111013650894D-04  .515366166496D+04
     .252000000000D+06  .409781932831D-07 -.476440860349D+00 -.633299350739D-07
     .962295961341D+00  .166187500000D+03 -.195872238079D+01 -.749816947171D-08
    -.249296098469D-09  .100000000000D+01  .195200000000D+04  .000000000000D+00
     .240000000000D+01  .000000000000D+00 -.931322574615D-08  .920000000000D+02
     .244806000000D+06  .400000000000D+01
15 17  6  6 22  0  0.0 -.351264141500D-03 -.682121026330D-12  .000000000000D+00
     .110000000000D+02  .784375000000D+01  .489591822036D-08  .298420823568D+01
     .368803739548D-06  .916407746263D-02  .105723738670D-04  .515381334877D+04
     .252000000000D+06 -.558793544769D-08 -.625074342227D+00 -.763684511185D-07
     .929210911810D+00  .159000000000D+03  .581991071247D+00 -.800711924294D-08
    -.357514891930D-09  .100000000000D+01  .195200000000D+04  .000000000000D+00
     .240000000000D+01  .000000000000D+00 -.107102096081D-07  .110000000000D+02
     .244806000000D+06  .400000000000D+01
16 17  6  6 22  0  0.0  .344845466316D-04  .568434188608D-12  .000000000000D+00
     .700000000000D+02 -.618750000000D+02  .409767068443D-08 -.147422906196D+01
    -.334717333317D-05  .934368546586D-02  .262446701527D-05  .515370742989D+04
     .252000000000D+06  .838190317154D-07  .161850970424D+01 -.670552253723D-07
     .989365838441D+00  .336343750000D+03  .456625601318D+00 -.806855037322D-08
    -.253581991279D-10  .100000000000D+01  .195200000000D+04  .000000000000D+00
     .240000000000D+01  .000000000000D+00 -.107102096081D-07  .700000000000D+02
     .244806000000D+06  .400000000000D+01
17 17  6  6 22  0  0.0 -.176015775651D-03  .181898940355D-11  .000000000000D+00
     .600000000000D+02 -.891875000000D+02  .389516224914D-08 -.241255417138D+01
    -.447779893875D-05  .116272912128D-01  .105258077383D-04  .515364553642D+04
     .252000000000D+06  .180676579475D-06  .263624208453D+01  .670552253723D-07
     .980334513679D+00  .183031250000D+03 -.184894142251D+01 -.748816905516D-08
     .117504894551D-09  .100000000000D+01  .195200000000D+04  .000000000000D+00
     .240000000000D+01  .000000000000D+00 -.111758708954D-07  .600000000000D+02
     .244806000000D+06  .400000000000D+01
18 17  6  6 22  0  0.0  .618939753622D-03  .159161572810D-11  .000000000000D+00
     .800000000000D+02 -.193437500000D+02  .582809990661D-08 -.969119979714D+00
    -.854954123497D-06  .181285222061D-01  .499002635479D-05  .515360209274D+04
     .252000000000D+06 -.210478901863D-06 -.164584712126D+01  .346451997757D-06
     .925145196217D+00  .265750000000D+03 -.180129561725D+01 -.891608567647D-08
    -.345371528968D-09  .100000000000D+01  .195200000000D+04  .000000000000D+00
     .240000000000D+01  .000000000000D+00 -.111758708954D-07  .800000000000D+02
     .244806000000D+06  .400000000000D+01
19 17  6  6 22  0  0.0 -.500754918903D-03  .147792889038D-11  .000000000000D+00
     .430000000000D+02 -.728750000000D+02  .408731311014D-08  .658468899873D+00
    -.363029539585D-05  .102929109707D-01  .104419887066D-04  .515367125130D+04
     .252000000000D+06 -.838190317154D-07  .268404583228D+01  .819563865662D-07
     .977633605564D+00  .190812500000D+03  .988105528664D+00 -.785425573271D-08
    -.342871424828D-10  .100000000000D+01  .195200000000D+04  .000000000000D+00
     .240000000000D+01  .000000000000D+00 -.153668224812D-07  .430000000000D+02
     .244806000000D+06  .400000000000D+01
20 17  6  6 22  0  0.0  .475145410746D-03  .147792889038D-11  .000000000000D+00
     .660000000000D+02 -.203437500000D+02  .567809365825D-08  .297494528271D+01
    -.989064574242D-06  .432920199819D-02  .452250242233D-05  .515368085480D+04
     .252000000000D+06  .987201929092D-07 -.169720595743D+01 -.149011611938D-07
     .926514541667D+00  .273593750000D+03  .160273870272D+01 -.856749972790D-08
    -.260725145963D-09  .100000000000D+01  .195200000000D+04  .000000000000D+00
     .240000000000D+01  .000000000000D+00 -.838190317154D-08  .660000000000D+02
     .244806000000D+06  .400000000000D+01
21 17  6  6 22  0  0.0 -.502497423440D-03  .227373675443D-11  .000000000000D+00
     .540000000000D+02  .220312500000D+02  .534557980771D-08 -.452741795199D-01
     .133924186230D-05  .239620242501D-01  .808387994766D-05  .515366556358D+04
     .252000000000D+06 -.348314642906D-06 -.268641927788D+01  .100582838058D-06
     .940039093499D+00  .218093750000D+03 -.166706257868D+01 -.878965183857D-08
     .431803700643D-09  .100000000000D+01  .195200000000D+04  .000000000000D+00
     .240000000000D+01  .000000000000D+00 -.977888703346D-08  .540000000000D+02
     .244806000000D+06  .400000000000D+01
